[{"OBJECT_NAME":"ALTAIR (RS65S)","OBJECT_ID":"2024-199AW","EPOCH":"2026-03-09T21:31:54.569568","MEAN_MOTION":15.34998047,"ECCENTRICITY":0.00120363,"INCLINATION":97.3179,"RA_OF_ASC_NODE":298.9542,"ARG_OF_PERICENTER":307.5319,"MEAN_ANOMALY":52.483,"EPHEMERIS_TYPE":0,"CLASSIFICATION_TYPE":"U","NORAD_CAT_ID":61779,"ELEMENT_SET_NO":999,"REV_AT_EPOCH":12187,"BSTAR":0.00027541775,"MEAN_MOTION_DOT":9.293e-5,"MEAN_MOTION_DDOT":0},{"OBJECT_NAME":"STARLINK-32834","OBJECT_ID":"2025-022X","EPOCH":"2026-03-09T10:42:14.334336","MEAN_MOTION":15.30192909,"ECCENTRICITY":0.00017091,"INCLINATION":53.1578,"RA_OF_ASC_NODE":130.6861,"ARG_OF_PERICENTER":95.1268,"MEAN_ANOMALY":264.9928,"EPHEMERIS_TYPE":0,"CLASSIFICATION_TYPE":"U","NORAD_CAT_ID":62875,"ELEMENT_SET_NO":999,"REV_AT_EPOCH":6186,"BSTAR":0.0010968473,"MEAN_MOTION_DOT":0.00032261,"MEAN_MOTION_DDOT":0}]
